{
  "type": "FeatureCollection",
  "features": [
    {
      "type": "Feature",
      "properties": {
        "norad_id": 39777,
        "name": "IRIDIUM 33 DEB",
        "group": "iridium-33-debris",
        "lat": -23.361581564171367,
        "lon": 166.96180209604952,
        "alt_km": 750.9177123874715,
        "timestamp": "2025-12-25T19:00:39.736829+00:00",
        "meta_object_name": "IRIDIUM 33 DEB",
        "meta_object_id": "1997-051AAJ",
        "meta_epoch": "2025-12-24T21:41:15.335808",
        "meta_mean_motion": 14.56705579,
        "meta_eccentricity": 0.00605319,
        "meta_inclination": 85.9631,
        "meta_ra_of_asc_node": 169.1412,
        "meta_arg_of_pericenter": 145.8576,
        "meta_mean_anomaly": 214.6549,
        "meta_ephemeris_type": 0,
        "meta_classification_type": "U",
        "meta_norad_cat_id": 39777,
        "meta_element_set_no": 999,
        "meta_rev_at_epoch": 60362,
        "meta_bstar": 0.0030691062,
        "meta_mean_motion_dot": 0.00014091,
        "meta_mean_motion_ddot": 0,
        "tle_line1": "1 39777U 97051AAJ 25358.90364972  .00014091  00000+0  30691-2 0  9993",
        "tle_line2": "2 39777  85.9631 169.1412 0060531 145.8576 214.6549 14.56705579603629"
      },
      "geometry": {
        "type": "Point",
        "coordinates": [
          166.96180209604952,
          -23.361581564171367
        ]
      }
    },
    {
      "type": "Feature",
      "properties": {
        "norad_id": 39778,
        "name": "IRIDIUM 33 DEB",
        "group": "iridium-33-debris",
        "lat": 64.94331370698444,
        "lon": 45.34825628459392,
        "alt_km": 703.2359945949129,
        "timestamp": "2025-12-25T19:00:39.736839+00:00",
        "meta_object_name": "IRIDIUM 33 DEB",
        "meta_object_id": "1997-051AAK",
        "meta_epoch": "2025-12-24T09:41:12.657408",
        "meta_mean_motion": 14.54337863,
        "meta_eccentricity": 0.00066717,
        "meta_inclination": 86.3766,
        "meta_ra_of_asc_node": 38.1613,
        "meta_arg_of_pericenter": 4.9575,
        "meta_mean_anomaly": 355.1697,
        "meta_ephemeris_type": 0,
        "meta_classification_type": "U",
        "meta_norad_cat_id": 39778,
        "meta_element_set_no": 999,
        "meta_rev_at_epoch": 60862,
        "meta_bstar": 0.00084263219,
        "meta_mean_motion_dot": 3.597e-05,
        "meta_mean_motion_ddot": 0,
        "tle_line1": "1 39778U 97051AAK 25358.40361872  .00003597  00000+0  84263-3 0  9999",
        "tle_line2": "2 39778  86.3766  38.1613 0006671   4.9575 355.1697 14.54337863608626"
      },
      "geometry": {
        "type": "Point",
        "coordinates": [
          45.34825628459392,
          64.94331370698444
        ]
      }
    },
    {
      "type": "Feature",
      "properties": {
        "norad_id": 39781,
        "name": "IRIDIUM 33 DEB",
        "group": "iridium-33-debris",
        "lat": 48.708676806620154,
        "lon": -103.25479177465205,
        "alt_km": 942.08041835938,
        "timestamp": "2025-12-25T19:00:39.736849+00:00",
        "meta_object_name": "IRIDIUM 33 DEB",
        "meta_object_id": "1997-051AAN",
        "meta_epoch": "2025-12-25T00:29:27.081312",
        "meta_mean_motion": 14.20935844,
        "meta_eccentricity": 0.01727335,
        "meta_inclination": 86.3691,
        "meta_ra_of_asc_node": 252.9174,
        "meta_arg_of_pericenter": 233.7174,
        "meta_mean_anomaly": 190.1518,
        "meta_ephemeris_type": 0,
        "meta_classification_type": "U",
        "meta_norad_cat_id": 39781,
        "meta_element_set_no": 999,
        "meta_rev_at_epoch": 8281,
        "meta_bstar": 0.0049709253,
        "meta_mean_motion_dot": 0.00012539,
        "meta_mean_motion_ddot": 0,
        "tle_line1": "1 39781U 97051AAN 25359.02045233  .00012539  00000+0  49709-2 0  9993",
        "tle_line2": "2 39781  86.3691 252.9174 0172733 233.7174 190.1518 14.20935844 82817"
      },
      "geometry": {
        "type": "Point",
        "coordinates": [
          -103.25479177465205,
          48.708676806620154
        ]
      }
    },
    {
      "type": "Feature",
      "properties": {
        "norad_id": 40996,
        "name": "IRIDIUM 33 DEB",
        "group": "iridium-33-debris",
        "lat": 3.9540529980321364,
        "lon": 175.05465412528835,
        "alt_km": 585.8534802356335,
        "timestamp": "2025-12-25T19:00:39.736860+00:00",
        "meta_object_name": "IRIDIUM 33 DEB",
        "meta_object_id": "1997-051ABJ",
        "meta_epoch": "2025-12-21T06:48:04.268736",
        "meta_mean_motion": 14.9672554,
        "meta_eccentricity": 0.001126,
        "meta_inclination": 86.3507,
        "meta_ra_of_asc_node": 357.4159,
        "meta_arg_of_pericenter": 39.2145,
        "meta_mean_anomaly": 336.8251,
        "meta_ephemeris_type": 0,
        "meta_classification_type": "U",
        "meta_norad_cat_id": 40996,
        "meta_element_set_no": 999,
        "meta_rev_at_epoch": 62616,
        "meta_bstar": 0.0023808,
        "meta_mean_motion_dot": 0.00027327,
        "meta_mean_motion_ddot": 0,
        "tle_line1": "1 40996U 97051ABJ 25355.28338274  .00027327  00000+0  23808-2 0  9990",
        "tle_line2": "2 40996  86.3507 357.4159 0011260  39.2145 336.8251 14.96725540626169"
      },
      "geometry": {
        "type": "Point",
        "coordinates": [
          175.05465412528835,
          3.9540529980321364
        ]
      }
    },
    {
      "type": "Feature",
      "properties": {
        "norad_id": 40998,
        "name": "IRIDIUM 33 DEB",
        "group": "iridium-33-debris",
        "lat": 13.554001876620541,
        "lon": 48.95364874212027,
        "alt_km": 737.5715442090814,
        "timestamp": "2025-12-25T19:00:39.736870+00:00",
        "meta_object_name": "IRIDIUM 33 DEB",
        "meta_object_id": "1997-051ABL",
        "meta_epoch": "2025-12-24T09:47:24.769248",
        "meta_mean_motion": 14.45133252,
        "meta_eccentricity": 0.00087498,
        "meta_inclination": 86.3815,
        "meta_ra_of_asc_node": 48.6709,
        "meta_arg_of_pericenter": 52.6459,
        "meta_mean_anomaly": 324.4141,
        "meta_ephemeris_type": 0,
        "meta_classification_type": "U",
        "meta_norad_cat_id": 40998,
        "meta_element_set_no": 999,
        "meta_rev_at_epoch": 6850,
        "meta_bstar": 0.00046540464,
        "meta_mean_motion_dot": 1.648e-05,
        "meta_mean_motion_ddot": 0,
        "tle_line1": "1 40998U 97051ABL 25358.40792557  .00001648  00000+0  46540-3 0  9994",
        "tle_line2": "2 40998  86.3815  48.6709 0008749  52.6459 324.4141 14.45133252 68504"
      },
      "geometry": {
        "type": "Point",
        "coordinates": [
          48.95364874212027,
          13.554001876620541
        ]
      }
    },
    {
      "type": "Feature",
      "properties": {
        "norad_id": 46435,
        "name": "IRIDIUM 33 DEB",
        "group": "iridium-33-debris",
        "lat": 18.18428845337785,
        "lon": -170.44550231178468,
        "alt_km": 901.0801658811688,
        "timestamp": "2025-12-25T19:00:39.736880+00:00",
        "meta_object_name": "IRIDIUM 33 DEB",
        "meta_object_id": "1997-051ABN",
        "meta_epoch": "2025-12-23T07:26:56.673024",
        "meta_mean_motion": 14.32901113,
        "meta_eccentricity": 0.02063954,
        "meta_inclination": 86.2811,
        "meta_ra_of_asc_node": 189.3996,
        "meta_arg_of_pericenter": 241.8575,
        "meta_mean_anomaly": 300.4526,
        "meta_ephemeris_type": 0,
        "meta_classification_type": "U",
        "meta_norad_cat_id": 46435,
        "meta_element_set_no": 999,
        "meta_rev_at_epoch": 8067,
        "meta_bstar": 0.0098042113,
        "meta_mean_motion_dot": 0.00034078,
        "meta_mean_motion_ddot": 0,
        "tle_line1": "1 46435U 97051ABN 25357.31037816  .00034078  00000+0  98042-2 0  9991",
        "tle_line2": "2 46435  86.2811 189.3996 0206395 241.8575 300.4526 14.32901113 80678"
      },
      "geometry": {
        "type": "Point",
        "coordinates": [
          -170.44550231178468,
          18.18428845337785
        ]
      }
    },
    {
      "type": "Feature",
      "properties": {
        "norad_id": 46734,
        "name": "IRIDIUM 33 DEB",
        "group": "iridium-33-debris",
        "lat": -76.56641312290566,
        "lon": -18.74231859402283,
        "alt_km": 732.9338675089703,
        "timestamp": "2025-12-25T19:00:39.736890+00:00",
        "meta_object_name": "IRIDIUM 33 DEB",
        "meta_object_id": "1997-051ABR",
        "meta_epoch": "2025-12-23T07:42:11.180736",
        "meta_mean_motion": 14.41950916,
        "meta_eccentricity": 0.00375691,
        "meta_inclination": 86.2641,
        "meta_ra_of_asc_node": 358.2178,
        "meta_arg_of_pericenter": 299.6503,
        "meta_mean_anomaly": 123.5651,
        "meta_ephemeris_type": 0,
        "meta_classification_type": "U",
        "meta_norad_cat_id": 46734,
        "meta_element_set_no": 999,
        "meta_rev_at_epoch": 63163,
        "meta_bstar": 0.0010295637,
        "meta_mean_motion_dot": 3.42e-05,
        "meta_mean_motion_ddot": 0,
        "tle_line1": "1 46734U 97051ABR 25357.32096274  .00003420  00000+0  10296-2 0  9999",
        "tle_line2": "2 46734  86.2641 358.2178 0037569 299.6503 123.5651 14.41950916631633"
      },
      "geometry": {
        "type": "Point",
        "coordinates": [
          -18.74231859402283,
          -76.56641312290566
        ]
      }
    }
  ]
}